0 WESTFORD NEEDLES
1 19051U 63014EA  13290.37304682 -.00001299  00000-0 -55339+0 0  4710
2 19051 087.3450 248.0848 0411566 254.8124 289.8629 08.66489494833723
0 WESTFORD NEEDLES
1 19051U 63014EA  13290.65872115 -.00000284  00000-0  10000-3 0  4725
2 19051 087.3367 248.0476 0417107 254.5872 100.8747 08.66487524833759
0 WESTFORD NEEDLES
1 19051U 63014EA  13290.67775512 -.00000658  00000-0 -28093+0 0  4723
2 19051 087.3312 248.0473 0410420 254.5344 160.2725 08.66473455833755
0 WESTFORD NEEDLES
1 19051U 63014EA  13292.33548134 -.00001936  00000-0 -82567+0 0  4733
2 19051 087.3326 247.8896 0407770 252.7284 291.3019 08.66469014833896
0 WESTFORD NEEDLES
1 19051U 63014EA  13292.86070392  .00000002  00000-0  00000+0 0  4741
2 19051 087.3316 247.8389 0407443 252.1817 129.6226 08.66460146833941
0 WESTFORD NEEDLES
1 19051U 63014EA  13294.82423476 -.00001025  00000-0 -43794+0 0  4750
2 19051 087.3284 247.6520 0406094 250.1008 134.4822 08.66466375834117
0 WESTFORD NEEDLES
1 19051U 63014EA  13295.86150882 -.00001956  00000-0 -83524+0 0  4762
2 19051 087.3303 247.5545 0405017 249.0295 130.0318 08.66462735834202
